{
  "type": "FeatureCollection",
  "features": [
    {
      "type": "Feature",
      "properties": {
        "name": "Tiergarten Green Loop",
        "distance_km": 6.2,
        "green_score": 85,
        "difficulty": "Easy",
        "description": "A scenic walk through Tiergarten park and along the Spree river"
      },
      "geometry": {
        "type": "LineString",
        "coordinates": [
          [13.3500, 52.5145],
          [13.3530, 52.5155],
          [13.3580, 52.5172],
          [13.3630, 52.5185],
          [13.3680, 52.5195],
          [13.3730, 52.5198],
          [13.3780, 52.5195],
          [13.3820, 52.5185],
          [13.3860, 52.5170],
          [13.3870, 52.5150],
          [13.3855, 52.5130],
          [13.3840, 52.5115],
          [13.3800, 52.5100],
          [13.3750, 52.5090],
          [13.3700, 52.5085],
          [13.3650, 52.5082],
          [13.3600, 52.5088],
          [13.3550, 52.5100],
          [13.3510, 52.5118],
          [13.3500, 52.5145]
        ]
      }
    }
  ]
}
