{
"type": "FeatureCollection",
"name": "tracks",
"features": [
{ "type": "Feature", "properties": { "name": "Rundwanderung durch die Eichwerder Moorwiesen – Naturpark Barnim & Schorfheide-Chorin" }, "geometry": { "type": "LineString", "coordinates": [ [ 13.356213, 52.620647 ], [ 13.355921, 52.620564 ], [ 13.355692, 52.620473 ], [ 13.355473, 52.620279 ], [ 13.35476, 52.619833 ], [ 13.354606, 52.619753 ], [ 13.354559, 52.619729 ], [ 13.353823, 52.619316 ], [ 13.353591, 52.619412 ], [ 13.352004, 52.621148 ], [ 13.351941, 52.621217 ], [ 13.351887, 52.621245 ], [ 13.351563, 52.621314 ], [ 13.351167, 52.621264 ], [ 13.350577, 52.621035 ], [ 13.35027, 52.62091 ], [ 13.34896, 52.620243 ], [ 13.348754, 52.620242 ], [ 13.348547, 52.620323 ], [ 13.348039, 52.620863 ], [ 13.34772, 52.621142 ], [ 13.347601, 52.621225 ], [ 13.347351, 52.6214 ], [ 13.346051, 52.622106 ], [ 13.344816, 52.622637 ], [ 13.344561, 52.622781 ], [ 13.344364, 52.622878 ], [ 13.344245, 52.622907 ], [ 13.343978, 52.622875 ], [ 13.343544, 52.622908 ], [ 13.343309, 52.62289 ], [ 13.34247, 52.622674 ], [ 13.342303, 52.622659 ], [ 13.341136, 52.622785 ], [ 13.341071, 52.622797 ], [ 13.340889, 52.622825 ], [ 13.340678, 52.622858 ], [ 13.338856, 52.622633 ], [ 13.338464, 52.622606 ], [ 13.337815, 52.622429 ], [ 13.337731, 52.622386 ], [ 13.337593, 52.622217 ], [ 13.337731, 52.622386 ], [ 13.337815, 52.622429 ], [ 13.338464, 52.622606 ], [ 13.338856, 52.622633 ], [ 13.340678, 52.622858 ], [ 13.340889, 52.622825 ], [ 13.340678, 52.622858 ], [ 13.338856, 52.622633 ], [ 13.338464, 52.622606 ], [ 13.337815, 52.622429 ], [ 13.337731, 52.622386 ], [ 13.337593, 52.622217 ], [ 13.337558, 52.622174 ], [ 13.337464, 52.622088 ], [ 13.337221, 52.622049 ], [ 13.336984, 52.622043 ], [ 13.336802, 52.622092 ], [ 13.33631, 52.622287 ], [ 13.335903, 52.622477 ], [ 13.335708, 52.622548 ], [ 13.335304, 52.622607 ], [ 13.334816, 52.622774 ], [ 13.334311, 52.622988 ], [ 13.33398, 52.623232 ], [ 13.333709, 52.623343 ], [ 13.33259, 52.623896 ], [ 13.3321, 52.624092 ], [ 13.332301, 52.624169 ], [ 13.332534, 52.624357 ], [ 13.332752, 52.62457 ], [ 13.332873, 52.624779 ], [ 13.33316, 52.625122 ], [ 13.333296, 52.625197 ], [ 13.333499, 52.625233 ], [ 13.334017, 52.625211 ], [ 13.335355, 52.625158 ], [ 13.33569, 52.625092 ], [ 13.335957, 52.625108 ], [ 13.33643, 52.62527 ], [ 13.336805, 52.625297 ], [ 13.336999, 52.62538 ], [ 13.338013, 52.625689 ], [ 13.338336, 52.625862 ], [ 13.338411, 52.626024 ], [ 13.338236, 52.626285 ], [ 13.338224, 52.626324 ], [ 13.338109, 52.626424 ], [ 13.338084, 52.626547 ], [ 13.337864, 52.626923 ], [ 13.337838, 52.626959 ], [ 13.337736, 52.627093 ], [ 13.337544, 52.627352 ], [ 13.337398, 52.62762 ], [ 13.338182, 52.627675 ], [ 13.338863, 52.627663 ], [ 13.339943, 52.627683 ], [ 13.340083, 52.627652 ], [ 13.340247, 52.627647 ], [ 13.340751, 52.627644 ], [ 13.341254, 52.627603 ], [ 13.342697, 52.627311 ], [ 13.342947, 52.627208 ], [ 13.343314, 52.62717 ], [ 13.343849, 52.627046 ], [ 13.344317, 52.626941 ], [ 13.344592, 52.626866 ], [ 13.344672, 52.626824 ], [ 13.344933, 52.626733 ], [ 13.34688, 52.626377 ], [ 13.346994, 52.626378 ], [ 13.348738, 52.626412 ], [ 13.349805, 52.626393 ], [ 13.351151, 52.626376 ], [ 13.351306, 52.626415 ], [ 13.351422, 52.626449 ], [ 13.351503, 52.626472 ], [ 13.352663, 52.626794 ], [ 13.353291, 52.626968 ], [ 13.355044, 52.627454 ], [ 13.355226, 52.627468 ], [ 13.355731, 52.627391 ], [ 13.356867, 52.627201 ], [ 13.357777, 52.627068 ], [ 13.360266, 52.62672 ], [ 13.360614, 52.626697 ], [ 13.362655, 52.626729 ], [ 13.364448, 52.626754 ], [ 13.365724, 52.62677 ], [ 13.366072, 52.626769 ], [ 13.366203, 52.626735 ], [ 13.366582, 52.626333 ], [ 13.366957, 52.625997 ], [ 13.367077, 52.625919 ], [ 13.367405, 52.625701 ], [ 13.367507, 52.625522 ], [ 13.367698, 52.625034 ], [ 13.36792, 52.625135 ], [ 13.367698, 52.625034 ], [ 13.36775, 52.624891 ], [ 13.368024, 52.624577 ], [ 13.36839, 52.624335 ], [ 13.368937, 52.623887 ], [ 13.370629, 52.622278 ], [ 13.370506, 52.622224 ], [ 13.370349, 52.622172 ], [ 13.369694, 52.621974 ], [ 13.369562, 52.621928 ], [ 13.368752, 52.621833 ], [ 13.367996, 52.621808 ], [ 13.367745, 52.621728 ], [ 13.367574, 52.621639 ], [ 13.367325, 52.621373 ], [ 13.367069, 52.621153 ], [ 13.366643, 52.620954 ], [ 13.36636, 52.621006 ], [ 13.366168, 52.620996 ], [ 13.365944, 52.620925 ], [ 13.365698, 52.620829 ], [ 13.36553, 52.620807 ], [ 13.36474, 52.620614 ], [ 13.364066, 52.620514 ], [ 13.363363, 52.620394 ], [ 13.362847, 52.620208 ], [ 13.362495, 52.620035 ], [ 13.362224, 52.619974 ], [ 13.360208, 52.61979 ], [ 13.359735, 52.620325 ], [ 13.359453, 52.620726 ], [ 13.359117, 52.62087 ], [ 13.359003, 52.620921 ], [ 13.358493, 52.621149 ], [ 13.358348, 52.621214 ], [ 13.358192, 52.621225 ], [ 13.356562, 52.620746 ], [ 13.356492, 52.620725 ], [ 13.356213, 52.620647 ] ] } }
]
}
