{
"type": "FeatureCollection",
"name": "track_points",
"features": [
{ "type": "Feature", "properties": { "track_fid": 0, "track_seg_id": 0, "track_seg_point_id": 0, "ele": 44.680831, "time": "2026-03-10T15:42:37.142Z" }, "geometry": { "type": "Point", "coordinates": [ 13.356213, 52.620647 ] } },
{ "type": "Feature", "properties": { "track_fid": 0, "track_seg_id": 0, "track_seg_point_id": 1, "ele": 44.680831, "time": "2026-03-10T15:42:57.016Z" }, "geometry": { "type": "Point", "coordinates": [ 13.355921, 52.620564 ] } },
{ "type": "Feature", "properties": { "track_fid": 0, "track_seg_id": 0, "track_seg_point_id": 2, "ele": 44.680831, "time": "2026-03-10T15:43:13.921Z" }, "geometry": { "type": "Point", "coordinates": [ 13.355692, 52.620473 ] } },
{ "type": "Feature", "properties": { "track_fid": 0, "track_seg_id": 0, "track_seg_point_id": 3, "ele": 44.680831, "time": "2026-03-10T15:43:37.934Z" }, "geometry": { "type": "Point", "coordinates": [ 13.355473, 52.620279 ] } },
{ "type": "Feature", "properties": { "track_fid": 0, "track_seg_id": 0, "track_seg_point_id": 4, "ele": 44.152465, "time": "2026-03-10T15:44:40.507Z" }, "geometry": { "type": "Point", "coordinates": [ 13.35476, 52.619833 ] } },
{ "type": "Feature", "properties": { "track_fid": 0, "track_seg_id": 0, "track_seg_point_id": 5, "ele": 43.948835, "time": "2026-03-10T15:44:53.082Z" }, "geometry": { "type": "Point", "coordinates": [ 13.354606, 52.619753 ] } },
{ "type": "Feature", "properties": { "track_fid": 0, "track_seg_id": 0, "track_seg_point_id": 6, "ele": 43.887133, "time": "2026-03-10T15:44:56.913Z" }, "geometry": { "type": "Point", "coordinates": [ 13.354559, 52.619729 ] } },
{ "type": "Feature", "properties": { "track_fid": 0, "track_seg_id": 0, "track_seg_point_id": 7, "ele": 42.88021, "time": "2026-03-10T15:45:59.402Z" }, "geometry": { "type": "Point", "coordinates": [ 13.353823, 52.619316 ] } },
{ "type": "Feature", "properties": { "track_fid": 0, "track_seg_id": 0, "track_seg_point_id": 8, "ele": 42.598132, "time": "2026-03-10T15:46:17.347Z" }, "geometry": { "type": "Point", "coordinates": [ 13.353591, 52.619412 ] } },
{ "type": "Feature", "properties": { "track_fid": 0, "track_seg_id": 0, "track_seg_point_id": 9, "ele": 37.431618, "time": "2026-03-10T15:49:48.453Z" }, "geometry": { "type": "Point", "coordinates": [ 13.352004, 52.621148 ] } },
{ "type": "Feature", "properties": { "track_fid": 0, "track_seg_id": 0, "track_seg_point_id": 10, "ele": 37.198398, "time": "2026-03-10T15:49:56.816Z" }, "geometry": { "type": "Point", "coordinates": [ 13.351941, 52.621217 ] } },
{ "type": "Feature", "properties": { "track_fid": 0, "track_seg_id": 0, "track_seg_point_id": 11, "ele": 37.070948, "time": "2026-03-10T15:50:01.382Z" }, "geometry": { "type": "Point", "coordinates": [ 13.351887, 52.621245 ] } },
{ "type": "Feature", "properties": { "track_fid": 0, "track_seg_id": 0, "track_seg_point_id": 12, "ele": 36.454735, "time": "2026-03-10T15:50:23.531Z" }, "geometry": { "type": "Point", "coordinates": [ 13.351563, 52.621314 ] } },
{ "type": "Feature", "properties": { "track_fid": 0, "track_seg_id": 0, "track_seg_point_id": 13, "ele": 36.005479, "time": "2026-03-10T15:50:49.469Z" }, "geometry": { "type": "Point", "coordinates": [ 13.351167, 52.621264 ] } },
{ "type": "Feature", "properties": { "track_fid": 0, "track_seg_id": 0, "track_seg_point_id": 14, "ele": 35.276866, "time": "2026-03-10T15:51:34.233Z" }, "geometry": { "type": "Point", "coordinates": [ 13.350577, 52.621035 ] } },
{ "type": "Feature", "properties": { "track_fid": 0, "track_seg_id": 0, "track_seg_point_id": 15, "ele": 34.892253, "time": "2026-03-10T15:51:57.656Z" }, "geometry": { "type": "Point", "coordinates": [ 13.35027, 52.62091 ] } },
{ "type": "Feature", "properties": { "track_fid": 0, "track_seg_id": 0, "track_seg_point_id": 16, "ele": 33.265125, "time": "2026-03-10T15:53:43.840Z" }, "geometry": { "type": "Point", "coordinates": [ 13.34896, 52.620243 ] } },
{ "type": "Feature", "properties": { "track_fid": 0, "track_seg_id": 0, "track_seg_point_id": 17, "ele": 33.221005, "time": "2026-03-10T15:53:56.520Z" }, "geometry": { "type": "Point", "coordinates": [ 13.348754, 52.620242 ] } },
{ "type": "Feature", "properties": { "track_fid": 0, "track_seg_id": 0, "track_seg_point_id": 18, "ele": 33.168262, "time": "2026-03-10T15:54:11.551Z" }, "geometry": { "type": "Point", "coordinates": [ 13.348547, 52.620323 ] } },
{ "type": "Feature", "properties": { "track_fid": 0, "track_seg_id": 0, "track_seg_point_id": 19, "ele": 32.948885, "time": "2026-03-10T15:55:14.388Z" }, "geometry": { "type": "Point", "coordinates": [ 13.348039, 52.620863 ] } },
{ "type": "Feature", "properties": { "track_fid": 0, "track_seg_id": 0, "track_seg_point_id": 20, "ele": 32.829074, "time": "2026-03-10T15:55:48.516Z" }, "geometry": { "type": "Point", "coordinates": [ 13.34772, 52.621142 ] } },
{ "type": "Feature", "properties": { "track_fid": 0, "track_seg_id": 0, "track_seg_point_id": 21, "ele": 32.790256, "time": "2026-03-10T15:55:59.551Z" }, "geometry": { "type": "Point", "coordinates": [ 13.347601, 52.621225 ] } },
{ "type": "Feature", "properties": { "track_fid": 0, "track_seg_id": 0, "track_seg_point_id": 22, "ele": 32.708537, "time": "2026-03-10T15:56:22.829Z" }, "geometry": { "type": "Point", "coordinates": [ 13.347351, 52.6214 ] } },
{ "type": "Feature", "properties": { "track_fid": 0, "track_seg_id": 0, "track_seg_point_id": 23, "ele": 32.606488, "time": "2026-03-10T15:58:09.396Z" }, "geometry": { "type": "Point", "coordinates": [ 13.346051, 52.622106 ] } },
{ "type": "Feature", "properties": { "track_fid": 0, "track_seg_id": 0, "track_seg_point_id": 24, "ele": 32.562797, "time": "2026-03-10T15:59:41.913Z" }, "geometry": { "type": "Point", "coordinates": [ 13.344816, 52.622637 ] } },
{ "type": "Feature", "properties": { "track_fid": 0, "track_seg_id": 0, "track_seg_point_id": 25, "ele": 32.602475, "time": "2026-03-10T16:00:03.211Z" }, "geometry": { "type": "Point", "coordinates": [ 13.344561, 52.622781 ] } },
{ "type": "Feature", "properties": { "track_fid": 0, "track_seg_id": 0, "track_seg_point_id": 26, "ele": 32.631373, "time": "2026-03-10T16:00:18.634Z" }, "geometry": { "type": "Point", "coordinates": [ 13.344364, 52.622878 ] } },
{ "type": "Feature", "properties": { "track_fid": 0, "track_seg_id": 0, "track_seg_point_id": 27, "ele": 32.645982, "time": "2026-03-10T16:00:26.430Z" }, "geometry": { "type": "Point", "coordinates": [ 13.344245, 52.622907 ] } },
{ "type": "Feature", "properties": { "track_fid": 0, "track_seg_id": 0, "track_seg_point_id": 28, "ele": 32.676988, "time": "2026-03-10T16:00:43.010Z" }, "geometry": { "type": "Point", "coordinates": [ 13.343978, 52.622875 ] } },
{ "type": "Feature", "properties": { "track_fid": 0, "track_seg_id": 0, "track_seg_point_id": 29, "ele": 32.726819, "time": "2026-03-10T16:01:09.837Z" }, "geometry": { "type": "Point", "coordinates": [ 13.343544, 52.622908 ] } },
{ "type": "Feature", "properties": { "track_fid": 0, "track_seg_id": 0, "track_seg_point_id": 30, "ele": 32.753805, "time": "2026-03-10T16:01:24.332Z" }, "geometry": { "type": "Point", "coordinates": [ 13.343309, 52.62289 ] } },
{ "type": "Feature", "properties": { "track_fid": 0, "track_seg_id": 0, "track_seg_point_id": 31, "ele": 32.857631, "time": "2026-03-10T16:02:20.453Z" }, "geometry": { "type": "Point", "coordinates": [ 13.34247, 52.622674 ] } },
{ "type": "Feature", "properties": { "track_fid": 0, "track_seg_id": 0, "track_seg_point_id": 32, "ele": 32.876864, "time": "2026-03-10T16:02:30.913Z" }, "geometry": { "type": "Point", "coordinates": [ 13.342303, 52.622659 ] } },
{ "type": "Feature", "properties": { "track_fid": 0, "track_seg_id": 0, "track_seg_point_id": 33, "ele": 33.249597, "time": "2026-03-10T16:03:44.426Z" }, "geometry": { "type": "Point", "coordinates": [ 13.341136, 52.622785 ] } },
{ "type": "Feature", "properties": { "track_fid": 0, "track_seg_id": 0, "track_seg_point_id": 34, "ele": 33.272101, "time": "2026-03-10T16:03:48.626Z" }, "geometry": { "type": "Point", "coordinates": [ 13.341071, 52.622797 ] } },
{ "type": "Feature", "properties": { "track_fid": 0, "track_seg_id": 0, "track_seg_point_id": 35, "ele": 33.334291, "time": "2026-03-10T16:04:00.323Z" }, "geometry": { "type": "Point", "coordinates": [ 13.340889, 52.622825 ] } },
{ "type": "Feature", "properties": { "track_fid": 0, "track_seg_id": 0, "track_seg_point_id": 36, "ele": 33.406462, "time": "2026-03-10T16:04:13.910Z" }, "geometry": { "type": "Point", "coordinates": [ 13.340678, 52.622858 ] } },
{ "type": "Feature", "properties": { "track_fid": 0, "track_seg_id": 0, "track_seg_point_id": 37, "ele": 33.910438, "time": "2026-03-10T16:06:09.215Z" }, "geometry": { "type": "Point", "coordinates": [ 13.338856, 52.622633 ] } },
{ "type": "Feature", "properties": { "track_fid": 0, "track_seg_id": 0, "track_seg_point_id": 38, "ele": 33.945951, "time": "2026-03-10T16:06:33.322Z" }, "geometry": { "type": "Point", "coordinates": [ 13.338464, 52.622606 ] } },
{ "type": "Feature", "properties": { "track_fid": 0, "track_seg_id": 0, "track_seg_point_id": 39, "ele": 34.009997, "time": "2026-03-10T16:07:16.662Z" }, "geometry": { "type": "Point", "coordinates": [ 13.337815, 52.622429 ] } },
{ "type": "Feature", "properties": { "track_fid": 0, "track_seg_id": 0, "track_seg_point_id": 40, "ele": 34.019888, "time": "2026-03-10T16:07:23.322Z" }, "geometry": { "type": "Point", "coordinates": [ 13.337731, 52.622386 ] } },
{ "type": "Feature", "properties": { "track_fid": 0, "track_seg_id": 0, "track_seg_point_id": 41, "ele": 34.047858, "time": "2026-03-10T16:07:42.219Z" }, "geometry": { "type": "Point", "coordinates": [ 13.337593, 52.622217 ] } },
{ "type": "Feature", "properties": { "track_fid": 0, "track_seg_id": 0, "track_seg_point_id": 42, "ele": 34.075828, "time": "2026-03-10T16:08:01.108Z" }, "geometry": { "type": "Point", "coordinates": [ 13.337731, 52.622386 ] } },
{ "type": "Feature", "properties": { "track_fid": 0, "track_seg_id": 0, "track_seg_point_id": 43, "ele": 34.085719, "time": "2026-03-10T16:08:07.764Z" }, "geometry": { "type": "Point", "coordinates": [ 13.337815, 52.622429 ] } },
{ "type": "Feature", "properties": { "track_fid": 0, "track_seg_id": 0, "track_seg_point_id": 44, "ele": 34.129765, "time": "2026-03-10T16:08:51.051Z" }, "geometry": { "type": "Point", "coordinates": [ 13.338464, 52.622606 ] } },
{ "type": "Feature", "properties": { "track_fid": 0, "track_seg_id": 0, "track_seg_point_id": 45, "ele": 34.115861, "time": "2026-03-10T16:09:15.066Z" }, "geometry": { "type": "Point", "coordinates": [ 13.338856, 52.622633 ] } },
{ "type": "Feature", "properties": { "track_fid": 0, "track_seg_id": 0, "track_seg_point_id": 46, "ele": 34.050335, "time": "2026-03-10T16:11:08.235Z" }, "geometry": { "type": "Point", "coordinates": [ 13.340678, 52.622858 ] } },
{ "type": "Feature", "properties": { "track_fid": 0, "track_seg_id": 0, "track_seg_point_id": 47, "ele": 34.042656, "time": "2026-03-10T16:11:21.479Z" }, "geometry": { "type": "Point", "coordinates": [ 13.340889, 52.622825 ] } },
{ "type": "Feature", "properties": { "track_fid": 0, "track_seg_id": 0, "track_seg_point_id": 48, "ele": 34.034978, "time": "2026-03-10T16:11:34.730Z" }, "geometry": { "type": "Point", "coordinates": [ 13.340678, 52.622858 ] } },
{ "type": "Feature", "properties": { "track_fid": 0, "track_seg_id": 0, "track_seg_point_id": 49, "ele": 33.816182, "time": "2026-03-10T16:13:28.070Z" }, "geometry": { "type": "Point", "coordinates": [ 13.338856, 52.622633 ] } },
{ "type": "Feature", "properties": { "track_fid": 0, "track_seg_id": 0, "track_seg_point_id": 50, "ele": 33.767641, "time": "2026-03-10T16:13:52.340Z" }, "geometry": { "type": "Point", "coordinates": [ 13.338464, 52.622606 ] } },
{ "type": "Feature", "properties": { "track_fid": 0, "track_seg_id": 0, "track_seg_point_id": 51, "ele": 33.6801, "time": "2026-03-10T16:14:36.036Z" }, "geometry": { "type": "Point", "coordinates": [ 13.337815, 52.622429 ] } },
{ "type": "Feature", "properties": { "track_fid": 0, "track_seg_id": 0, "track_seg_point_id": 52, "ele": 33.66658, "time": "2026-03-10T16:14:42.786Z" }, "geometry": { "type": "Point", "coordinates": [ 13.337731, 52.622386 ] } },
{ "type": "Feature", "properties": { "track_fid": 0, "track_seg_id": 0, "track_seg_point_id": 53, "ele": 33.549271, "time": "2026-03-10T16:15:01.952Z" }, "geometry": { "type": "Point", "coordinates": [ 13.337593, 52.622217 ] } },
{ "type": "Feature", "properties": { "track_fid": 0, "track_seg_id": 0, "track_seg_point_id": 54, "ele": 33.51936, "time": "2026-03-10T16:15:06.837Z" }, "geometry": { "type": "Point", "coordinates": [ 13.337558, 52.622174 ] } },
{ "type": "Feature", "properties": { "track_fid": 0, "track_seg_id": 0, "track_seg_point_id": 55, "ele": 33.454995, "time": "2026-03-10T16:15:17.207Z" }, "geometry": { "type": "Point", "coordinates": [ 13.337464, 52.622088 ] } },
{ "type": "Feature", "properties": { "track_fid": 0, "track_seg_id": 0, "track_seg_point_id": 56, "ele": 33.359837, "time": "2026-03-10T16:15:32.768Z" }, "geometry": { "type": "Point", "coordinates": [ 13.337221, 52.622049 ] } },
{ "type": "Feature", "properties": { "track_fid": 0, "track_seg_id": 0, "track_seg_point_id": 57, "ele": 33.270033, "time": "2026-03-10T16:15:47.317Z" }, "geometry": { "type": "Point", "coordinates": [ 13.336984, 52.622043 ] } },
{ "type": "Feature", "properties": { "track_fid": 0, "track_seg_id": 0, "track_seg_point_id": 58, "ele": 33.194658, "time": "2026-03-10T16:15:59.662Z" }, "geometry": { "type": "Point", "coordinates": [ 13.336802, 52.622092 ] } },
{ "type": "Feature", "properties": { "track_fid": 0, "track_seg_id": 0, "track_seg_point_id": 59, "ele": 32.97221, "time": "2026-03-10T16:16:35.849Z" }, "geometry": { "type": "Point", "coordinates": [ 13.33631, 52.622287 ] } },
{ "type": "Feature", "properties": { "track_fid": 0, "track_seg_id": 0, "track_seg_point_id": 60, "ele": 32.777834, "time": "2026-03-10T16:17:07.397Z" }, "geometry": { "type": "Point", "coordinates": [ 13.335903, 52.622477 ] } },
{ "type": "Feature", "properties": { "track_fid": 0, "track_seg_id": 0, "track_seg_point_id": 61, "ele": 32.69175, "time": "2026-03-10T16:17:21.506Z" }, "geometry": { "type": "Point", "coordinates": [ 13.335708, 52.622548 ] } },
{ "type": "Feature", "properties": { "track_fid": 0, "track_seg_id": 0, "track_seg_point_id": 62, "ele": 32.545018, "time": "2026-03-10T16:17:47.043Z" }, "geometry": { "type": "Point", "coordinates": [ 13.335304, 52.622607 ] } },
{ "type": "Feature", "properties": { "track_fid": 0, "track_seg_id": 0, "track_seg_point_id": 63, "ele": 32.550904, "time": "2026-03-10T16:18:21.568Z" }, "geometry": { "type": "Point", "coordinates": [ 13.334816, 52.622774 ] } },
{ "type": "Feature", "properties": { "track_fid": 0, "track_seg_id": 0, "track_seg_point_id": 64, "ele": 32.557376, "time": "2026-03-10T16:18:59.201Z" }, "geometry": { "type": "Point", "coordinates": [ 13.334311, 52.622988 ] } },
{ "type": "Feature", "properties": { "track_fid": 0, "track_seg_id": 0, "track_seg_point_id": 65, "ele": 32.562848, "time": "2026-03-10T16:19:31.336Z" }, "geometry": { "type": "Point", "coordinates": [ 13.33398, 52.623232 ] } },
{ "type": "Feature", "properties": { "track_fid": 0, "track_seg_id": 0, "track_seg_point_id": 66, "ele": 32.566283, "time": "2026-03-10T16:19:51.440Z" }, "geometry": { "type": "Point", "coordinates": [ 13.333709, 52.623343 ] } },
{ "type": "Feature", "properties": { "track_fid": 0, "track_seg_id": 0, "track_seg_point_id": 67, "ele": 32.562571, "time": "2026-03-10T16:21:20.319Z" }, "geometry": { "type": "Point", "coordinates": [ 13.33259, 52.623896 ] } },
{ "type": "Feature", "properties": { "track_fid": 0, "track_seg_id": 0, "track_seg_point_id": 68, "ele": 32.547875, "time": "2026-03-10T16:21:56.220Z" }, "geometry": { "type": "Point", "coordinates": [ 13.3321, 52.624092 ] } },
{ "type": "Feature", "properties": { "track_fid": 0, "track_seg_id": 0, "track_seg_point_id": 69, "ele": 32.541922, "time": "2026-03-10T16:22:10.712Z" }, "geometry": { "type": "Point", "coordinates": [ 13.332301, 52.624169 ] } },
{ "type": "Feature", "properties": { "track_fid": 0, "track_seg_id": 0, "track_seg_point_id": 70, "ele": 32.532216, "time": "2026-03-10T16:22:34.303Z" }, "geometry": { "type": "Point", "coordinates": [ 13.332534, 52.624357 ] } },
{ "type": "Feature", "properties": { "track_fid": 0, "track_seg_id": 0, "track_seg_point_id": 71, "ele": 32.521871, "time": "2026-03-10T16:22:59.456Z" }, "geometry": { "type": "Point", "coordinates": [ 13.332752, 52.62457 ] } },
{ "type": "Feature", "properties": { "track_fid": 0, "track_seg_id": 0, "track_seg_point_id": 72, "ele": 32.512731, "time": "2026-03-10T16:23:21.743Z" }, "geometry": { "type": "Point", "coordinates": [ 13.332873, 52.624779 ] } },
{ "type": "Feature", "properties": { "track_fid": 0, "track_seg_id": 0, "track_seg_point_id": 73, "ele": 32.47539, "time": "2026-03-10T16:24:00.729Z" }, "geometry": { "type": "Point", "coordinates": [ 13.33316, 52.625122 ] } },
{ "type": "Feature", "properties": { "track_fid": 0, "track_seg_id": 0, "track_seg_point_id": 74, "ele": 32.450214, "time": "2026-03-10T16:24:12.066Z" }, "geometry": { "type": "Point", "coordinates": [ 13.333296, 52.625197 ] } },
{ "type": "Feature", "properties": { "track_fid": 0, "track_seg_id": 0, "track_seg_point_id": 75, "ele": 32.421238, "time": "2026-03-10T16:24:25.106Z" }, "geometry": { "type": "Point", "coordinates": [ 13.333499, 52.625233 ] } },
{ "type": "Feature", "properties": { "track_fid": 0, "track_seg_id": 0, "track_seg_point_id": 76, "ele": 32.350091, "time": "2026-03-10T16:24:57.088Z" }, "geometry": { "type": "Point", "coordinates": [ 13.334017, 52.625211 ] } },
{ "type": "Feature", "properties": { "track_fid": 0, "track_seg_id": 0, "track_seg_point_id": 77, "ele": 32.166377, "time": "2026-03-10T16:26:18.806Z" }, "geometry": { "type": "Point", "coordinates": [ 13.335355, 52.625158 ] } },
{ "type": "Feature", "properties": { "track_fid": 0, "track_seg_id": 0, "track_seg_point_id": 78, "ele": 32.11812, "time": "2026-03-10T16:26:40.563Z" }, "geometry": { "type": "Point", "coordinates": [ 13.33569, 52.625092 ] } },
{ "type": "Feature", "properties": { "track_fid": 0, "track_seg_id": 0, "track_seg_point_id": 79, "ele": 32.113173, "time": "2026-03-10T16:26:56.912Z" }, "geometry": { "type": "Point", "coordinates": [ 13.335957, 52.625108 ] } },
{ "type": "Feature", "properties": { "track_fid": 0, "track_seg_id": 0, "track_seg_point_id": 80, "ele": 32.204021, "time": "2026-03-10T16:27:30.094Z" }, "geometry": { "type": "Point", "coordinates": [ 13.33643, 52.62527 ] } },
{ "type": "Feature", "properties": { "track_fid": 0, "track_seg_id": 0, "track_seg_point_id": 81, "ele": 32.26719, "time": "2026-03-10T16:27:53.193Z" }, "geometry": { "type": "Point", "coordinates": [ 13.336805, 52.625297 ] } },
{ "type": "Feature", "properties": { "track_fid": 0, "track_seg_id": 0, "track_seg_point_id": 82, "ele": 32.306892, "time": "2026-03-10T16:28:07.621Z" }, "geometry": { "type": "Point", "coordinates": [ 13.336999, 52.62538 ] } },
{ "type": "Feature", "properties": { "track_fid": 0, "track_seg_id": 0, "track_seg_point_id": 83, "ele": 32.496685, "time": "2026-03-10T16:29:16.935Z" }, "geometry": { "type": "Point", "coordinates": [ 13.338013, 52.625689 ] } },
{ "type": "Feature", "properties": { "track_fid": 0, "track_seg_id": 0, "track_seg_point_id": 84, "ele": 32.568741, "time": "2026-03-10T16:29:43.572Z" }, "geometry": { "type": "Point", "coordinates": [ 13.338336, 52.625862 ] } },
{ "type": "Feature", "properties": { "track_fid": 0, "track_seg_id": 0, "track_seg_point_id": 85, "ele": 32.650423, "time": "2026-03-10T16:30:00.847Z" }, "geometry": { "type": "Point", "coordinates": [ 13.338411, 52.626024 ] } },
{ "type": "Feature", "properties": { "track_fid": 0, "track_seg_id": 0, "track_seg_point_id": 86, "ele": 32.843403, "time": "2026-03-10T16:30:30.355Z" }, "geometry": { "type": "Point", "coordinates": [ 13.338236, 52.626285 ] } },
{ "type": "Feature", "properties": { "track_fid": 0, "track_seg_id": 0, "track_seg_point_id": 87, "ele": 32.870574, "time": "2026-03-10T16:30:34.314Z" }, "geometry": { "type": "Point", "coordinates": [ 13.338224, 52.626324 ] } },
{ "type": "Feature", "properties": { "track_fid": 0, "track_seg_id": 0, "track_seg_point_id": 88, "ele": 32.954093, "time": "2026-03-10T16:30:46.727Z" }, "geometry": { "type": "Point", "coordinates": [ 13.338109, 52.626424 ] } },
{ "type": "Feature", "properties": { "track_fid": 0, "track_seg_id": 0, "track_seg_point_id": 89, "ele": 33.038967, "time": "2026-03-10T16:30:59.596Z" }, "geometry": { "type": "Point", "coordinates": [ 13.338084, 52.626547 ] } },
{ "type": "Feature", "properties": { "track_fid": 0, "track_seg_id": 0, "track_seg_point_id": 90, "ele": 33.312224, "time": "2026-03-10T16:31:40.451Z" }, "geometry": { "type": "Point", "coordinates": [ 13.337864, 52.626923 ] } },
{ "type": "Feature", "properties": { "track_fid": 0, "track_seg_id": 0, "track_seg_point_id": 91, "ele": 33.339143, "time": "2026-03-10T16:31:44.533Z" }, "geometry": { "type": "Point", "coordinates": [ 13.337838, 52.626959 ] } },
{ "type": "Feature", "properties": { "track_fid": 0, "track_seg_id": 0, "track_seg_point_id": 92, "ele": 33.440234, "time": "2026-03-10T16:31:59.347Z" }, "geometry": { "type": "Point", "coordinates": [ 13.337736, 52.627093 ] } },
{ "type": "Feature", "properties": { "track_fid": 0, "track_seg_id": 0, "track_seg_point_id": 93, "ele": 33.634737, "time": "2026-03-10T16:32:28.391Z" }, "geometry": { "type": "Point", "coordinates": [ 13.337544, 52.627352 ] } },
{ "type": "Feature", "properties": { "track_fid": 0, "track_seg_id": 0, "track_seg_point_id": 94, "ele": 33.828043, "time": "2026-03-10T16:32:57.794Z" }, "geometry": { "type": "Point", "coordinates": [ 13.337398, 52.62762 ] } },
{ "type": "Feature", "properties": { "track_fid": 0, "track_seg_id": 0, "track_seg_point_id": 95, "ele": 34.155821, "time": "2026-03-10T16:33:47.258Z" }, "geometry": { "type": "Point", "coordinates": [ 13.338182, 52.627675 ] } },
{ "type": "Feature", "properties": { "track_fid": 0, "track_seg_id": 0, "track_seg_point_id": 96, "ele": 34.438773, "time": "2026-03-10T16:34:30.098Z" }, "geometry": { "type": "Point", "coordinates": [ 13.338863, 52.627663 ] } },
{ "type": "Feature", "properties": { "track_fid": 0, "track_seg_id": 0, "track_seg_point_id": 97, "ele": 34.887527, "time": "2026-03-10T16:35:37.765Z" }, "geometry": { "type": "Point", "coordinates": [ 13.339943, 52.627683 ] } },
{ "type": "Feature", "properties": { "track_fid": 0, "track_seg_id": 0, "track_seg_point_id": 98, "ele": 34.949419, "time": "2026-03-10T16:35:46.806Z" }, "geometry": { "type": "Point", "coordinates": [ 13.340083, 52.627652 ] } },
{ "type": "Feature", "properties": { "track_fid": 0, "track_seg_id": 0, "track_seg_point_id": 99, "ele": 35.017618, "time": "2026-03-10T16:35:56.790Z" }, "geometry": { "type": "Point", "coordinates": [ 13.340247, 52.627647 ] } },
{ "type": "Feature", "properties": { "track_fid": 0, "track_seg_id": 0, "track_seg_point_id": 100, "ele": 34.91947, "time": "2026-03-10T16:36:27.590Z" }, "geometry": { "type": "Point", "coordinates": [ 13.340751, 52.627644 ] } },
{ "type": "Feature", "properties": { "track_fid": 0, "track_seg_id": 0, "track_seg_point_id": 101, "ele": 34.755959, "time": "2026-03-10T16:36:58.595Z" }, "geometry": { "type": "Point", "coordinates": [ 13.341254, 52.627603 ] } },
{ "type": "Feature", "properties": { "track_fid": 0, "track_seg_id": 0, "track_seg_point_id": 102, "ele": 34.265899, "time": "2026-03-10T16:38:32.539Z" }, "geometry": { "type": "Point", "coordinates": [ 13.342697, 52.627311 ] } },
{ "type": "Feature", "properties": { "track_fid": 0, "track_seg_id": 0, "track_seg_point_id": 103, "ele": 34.168552, "time": "2026-03-10T16:38:51.329Z" }, "geometry": { "type": "Point", "coordinates": [ 13.342947, 52.627208 ] } },
{ "type": "Feature", "properties": { "track_fid": 0, "track_seg_id": 0, "track_seg_point_id": 104, "ele": 34.065737, "time": "2026-03-10T16:39:14.255Z" }, "geometry": { "type": "Point", "coordinates": [ 13.343314, 52.62717 ] } },
{ "type": "Feature", "properties": { "track_fid": 0, "track_seg_id": 0, "track_seg_point_id": 105, "ele": 33.943821, "time": "2026-03-10T16:39:49.458Z" }, "geometry": { "type": "Point", "coordinates": [ 13.343849, 52.627046 ] } },
{ "type": "Feature", "properties": { "track_fid": 0, "track_seg_id": 0, "track_seg_point_id": 106, "ele": 33.8376, "time": "2026-03-10T16:40:20.046Z" }, "geometry": { "type": "Point", "coordinates": [ 13.344317, 52.626941 ] } },
{ "type": "Feature", "properties": { "track_fid": 0, "track_seg_id": 0, "track_seg_point_id": 107, "ele": 33.773418, "time": "2026-03-10T16:40:38.566Z" }, "geometry": { "type": "Point", "coordinates": [ 13.344592, 52.626866 ] } },
{ "type": "Feature", "properties": { "track_fid": 0, "track_seg_id": 0, "track_seg_point_id": 108, "ele": 33.7509, "time": "2026-03-10T16:40:45.062Z" }, "geometry": { "type": "Point", "coordinates": [ 13.344672, 52.626824 ] } },
{ "type": "Feature", "properties": { "track_fid": 0, "track_seg_id": 0, "track_seg_point_id": 109, "ele": 33.686822, "time": "2026-03-10T16:41:03.471Z" }, "geometry": { "type": "Point", "coordinates": [ 13.344933, 52.626733 ] } },
{ "type": "Feature", "properties": { "track_fid": 0, "track_seg_id": 0, "track_seg_point_id": 110, "ele": 33.709551, "time": "2026-03-10T16:43:07.257Z" }, "geometry": { "type": "Point", "coordinates": [ 13.34688, 52.626377 ] } },
{ "type": "Feature", "properties": { "track_fid": 0, "track_seg_id": 0, "track_seg_point_id": 111, "ele": 33.73687, "time": "2026-03-10T16:43:14.312Z" }, "geometry": { "type": "Point", "coordinates": [ 13.346994, 52.626378 ] } },
{ "type": "Feature", "properties": { "track_fid": 0, "track_seg_id": 0, "track_seg_point_id": 112, "ele": 34.154972, "time": "2026-03-10T16:45:02.316Z" }, "geometry": { "type": "Point", "coordinates": [ 13.348738, 52.626412 ] } },
{ "type": "Feature", "properties": { "track_fid": 0, "track_seg_id": 0, "track_seg_point_id": 113, "ele": 34.478214, "time": "2026-03-10T16:46:08.798Z" }, "geometry": { "type": "Point", "coordinates": [ 13.349805, 52.626393 ] } },
{ "type": "Feature", "properties": { "track_fid": 0, "track_seg_id": 0, "track_seg_point_id": 114, "ele": 34.894427, "time": "2026-03-10T16:47:32.309Z" }, "geometry": { "type": "Point", "coordinates": [ 13.351151, 52.626376 ] } },
{ "type": "Feature", "properties": { "track_fid": 0, "track_seg_id": 0, "track_seg_point_id": 115, "ele": 34.946299, "time": "2026-03-10T16:47:42.619Z" }, "geometry": { "type": "Point", "coordinates": [ 13.351306, 52.626415 ] } },
{ "type": "Feature", "properties": { "track_fid": 0, "track_seg_id": 0, "track_seg_point_id": 116, "ele": 34.986123, "time": "2026-03-10T16:47:50.697Z" }, "geometry": { "type": "Point", "coordinates": [ 13.351422, 52.626449 ] } },
{ "type": "Feature", "properties": { "track_fid": 0, "track_seg_id": 0, "track_seg_point_id": 117, "ele": 35.013769, "time": "2026-03-10T16:47:56.244Z" }, "geometry": { "type": "Point", "coordinates": [ 13.351503, 52.626472 ] } },
{ "type": "Feature", "properties": { "track_fid": 0, "track_seg_id": 0, "track_seg_point_id": 118, "ele": 35.101432, "time": "2026-03-10T16:49:13.914Z" }, "geometry": { "type": "Point", "coordinates": [ 13.352663, 52.626794 ] } },
{ "type": "Feature", "properties": { "track_fid": 0, "track_seg_id": 0, "track_seg_point_id": 119, "ele": 35.106247, "time": "2026-03-10T16:49:55.939Z" }, "geometry": { "type": "Point", "coordinates": [ 13.353291, 52.626968 ] } },
{ "type": "Feature", "properties": { "track_fid": 0, "track_seg_id": 0, "track_seg_point_id": 120, "ele": 35.082966, "time": "2026-03-10T16:51:53.112Z" }, "geometry": { "type": "Point", "coordinates": [ 13.355044, 52.627454 ] } },
{ "type": "Feature", "properties": { "track_fid": 0, "track_seg_id": 0, "track_seg_point_id": 121, "ele": 35.074179, "time": "2026-03-10T16:52:04.434Z" }, "geometry": { "type": "Point", "coordinates": [ 13.355226, 52.627468 ] } },
{ "type": "Feature", "properties": { "track_fid": 0, "track_seg_id": 0, "track_seg_point_id": 122, "ele": 35.049239, "time": "2026-03-10T16:52:36.391Z" }, "geometry": { "type": "Point", "coordinates": [ 13.355731, 52.627391 ] } },
{ "type": "Feature", "properties": { "track_fid": 0, "track_seg_id": 0, "track_seg_point_id": 123, "ele": 34.992798, "time": "2026-03-10T16:53:48.157Z" }, "geometry": { "type": "Point", "coordinates": [ 13.356867, 52.627201 ] } },
{ "type": "Feature", "properties": { "track_fid": 0, "track_seg_id": 0, "track_seg_point_id": 124, "ele": 35.149845, "time": "2026-03-10T16:54:45.794Z" }, "geometry": { "type": "Point", "coordinates": [ 13.357777, 52.627068 ] } },
{ "type": "Feature", "properties": { "track_fid": 0, "track_seg_id": 0, "track_seg_point_id": 125, "ele": 35.990239, "time": "2026-03-10T16:57:24.279Z" }, "geometry": { "type": "Point", "coordinates": [ 13.360266, 52.62672 ] } },
{ "type": "Feature", "properties": { "track_fid": 0, "track_seg_id": 0, "track_seg_point_id": 126, "ele": 36.046766, "time": "2026-03-10T16:57:46.325Z" }, "geometry": { "type": "Point", "coordinates": [ 13.360614, 52.626697 ] } },
{ "type": "Feature", "properties": { "track_fid": 0, "track_seg_id": 0, "track_seg_point_id": 127, "ele": 36.376455, "time": "2026-03-10T16:59:53.055Z" }, "geometry": { "type": "Point", "coordinates": [ 13.362655, 52.626729 ] } },
{ "type": "Feature", "properties": { "track_fid": 0, "track_seg_id": 0, "track_seg_point_id": 128, "ele": 35.544846, "time": "2026-03-10T17:01:44.424Z" }, "geometry": { "type": "Point", "coordinates": [ 13.364448, 52.626754 ] } },
{ "type": "Feature", "properties": { "track_fid": 0, "track_seg_id": 0, "track_seg_point_id": 129, "ele": 34.681153, "time": "2026-03-10T17:03:04.004Z" }, "geometry": { "type": "Point", "coordinates": [ 13.365724, 52.62677 ] } },
{ "type": "Feature", "properties": { "track_fid": 0, "track_seg_id": 0, "track_seg_point_id": 130, "ele": 34.445648, "time": "2026-03-10T17:03:25.719Z" }, "geometry": { "type": "Point", "coordinates": [ 13.366072, 52.626769 ] } },
{ "type": "Feature", "properties": { "track_fid": 0, "track_seg_id": 0, "track_seg_point_id": 131, "ele": 34.366901, "time": "2026-03-10T17:03:34.703Z" }, "geometry": { "type": "Point", "coordinates": [ 13.366203, 52.626735 ] } },
{ "type": "Feature", "properties": { "track_fid": 0, "track_seg_id": 0, "track_seg_point_id": 132, "ele": 33.945977, "time": "2026-03-10T17:04:22.663Z" }, "geometry": { "type": "Point", "coordinates": [ 13.366582, 52.626333 ] } },
{ "type": "Feature", "properties": { "track_fid": 0, "track_seg_id": 0, "track_seg_point_id": 133, "ele": 33.577151, "time": "2026-03-10T17:05:04.450Z" }, "geometry": { "type": "Point", "coordinates": [ 13.366957, 52.625997 ] } },
{ "type": "Feature", "properties": { "track_fid": 0, "track_seg_id": 0, "track_seg_point_id": 134, "ele": 33.480162, "time": "2026-03-10T17:05:15.362Z" }, "geometry": { "type": "Point", "coordinates": [ 13.367077, 52.625919 ] } },
{ "type": "Feature", "properties": { "track_fid": 0, "track_seg_id": 0, "track_seg_point_id": 135, "ele": 33.211855, "time": "2026-03-10T17:05:45.262Z" }, "geometry": { "type": "Point", "coordinates": [ 13.367405, 52.625701 ] } },
{ "type": "Feature", "properties": { "track_fid": 0, "track_seg_id": 0, "track_seg_point_id": 136, "ele": 33.039726, "time": "2026-03-10T17:06:04.375Z" }, "geometry": { "type": "Point", "coordinates": [ 13.367507, 52.625522 ] } },
{ "type": "Feature", "properties": { "track_fid": 0, "track_seg_id": 0, "track_seg_point_id": 137, "ele": 33.209071, "time": "2026-03-10T17:06:54.836Z" }, "geometry": { "type": "Point", "coordinates": [ 13.367698, 52.625034 ] } },
{ "type": "Feature", "properties": { "track_fid": 0, "track_seg_id": 0, "track_seg_point_id": 138, "ele": 33.478753, "time": "2026-03-10T17:07:11.750Z" }, "geometry": { "type": "Point", "coordinates": [ 13.36792, 52.625135 ] } },
{ "type": "Feature", "properties": { "track_fid": 0, "track_seg_id": 0, "track_seg_point_id": 139, "ele": 33.748434, "time": "2026-03-10T17:07:29.021Z" }, "geometry": { "type": "Point", "coordinates": [ 13.367698, 52.625034 ] } },
{ "type": "Feature", "properties": { "track_fid": 0, "track_seg_id": 0, "track_seg_point_id": 140, "ele": 33.982941, "time": "2026-03-10T17:07:44.104Z" }, "geometry": { "type": "Point", "coordinates": [ 13.36775, 52.624891 ] } },
{ "type": "Feature", "properties": { "track_fid": 0, "track_seg_id": 0, "track_seg_point_id": 141, "ele": 34.551953, "time": "2026-03-10T17:08:21.537Z" }, "geometry": { "type": "Point", "coordinates": [ 13.368024, 52.624577 ] } },
{ "type": "Feature", "properties": { "track_fid": 0, "track_seg_id": 0, "track_seg_point_id": 142, "ele": 35.078032, "time": "2026-03-10T17:08:57.067Z" }, "geometry": { "type": "Point", "coordinates": [ 13.36839, 52.624335 ] } },
{ "type": "Feature", "properties": { "track_fid": 0, "track_seg_id": 0, "track_seg_point_id": 143, "ele": 36.305774, "time": "2026-03-10T17:09:59.183Z" }, "geometry": { "type": "Point", "coordinates": [ 13.368937, 52.623887 ] } },
{ "type": "Feature", "properties": { "track_fid": 0, "track_seg_id": 0, "track_seg_point_id": 144, "ele": 42.336425, "time": "2026-03-10T17:13:35.734Z" }, "geometry": { "type": "Point", "coordinates": [ 13.370629, 52.622278 ] } },
{ "type": "Feature", "properties": { "track_fid": 0, "track_seg_id": 0, "track_seg_point_id": 145, "ele": 42.442414, "time": "2026-03-10T17:13:45.443Z" }, "geometry": { "type": "Point", "coordinates": [ 13.370506, 52.622224 ] } },
{ "type": "Feature", "properties": { "track_fid": 0, "track_seg_id": 0, "track_seg_point_id": 146, "ele": 42.567293, "time": "2026-03-10T17:13:56.753Z" }, "geometry": { "type": "Point", "coordinates": [ 13.370349, 52.622172 ] } },
{ "type": "Feature", "properties": { "track_fid": 0, "track_seg_id": 0, "track_seg_point_id": 147, "ele": 43.078208, "time": "2026-03-10T17:14:42.341Z" }, "geometry": { "type": "Point", "coordinates": [ 13.369694, 52.621974 ] } },
{ "type": "Feature", "properties": { "track_fid": 0, "track_seg_id": 0, "track_seg_point_id": 148, "ele": 43.184484, "time": "2026-03-10T17:14:51.693Z" }, "geometry": { "type": "Point", "coordinates": [ 13.369562, 52.621928 ] } },
{ "type": "Feature", "properties": { "track_fid": 0, "track_seg_id": 0, "track_seg_point_id": 149, "ele": 43.760524, "time": "2026-03-10T17:15:42.537Z" }, "geometry": { "type": "Point", "coordinates": [ 13.368752, 52.621833 ] } },
{ "type": "Feature", "properties": { "track_fid": 0, "track_seg_id": 0, "track_seg_point_id": 150, "ele": 43.973897, "time": "2026-03-10T17:16:28.733Z" }, "geometry": { "type": "Point", "coordinates": [ 13.367996, 52.621808 ] } },
{ "type": "Feature", "properties": { "track_fid": 0, "track_seg_id": 0, "track_seg_point_id": 151, "ele": 43.877828, "time": "2026-03-10T17:16:46.125Z" }, "geometry": { "type": "Point", "coordinates": [ 13.367745, 52.621728 ] } },
{ "type": "Feature", "properties": { "track_fid": 0, "track_seg_id": 0, "track_seg_point_id": 152, "ele": 43.801498, "time": "2026-03-10T17:17:00.015Z" }, "geometry": { "type": "Point", "coordinates": [ 13.367574, 52.621639 ] } },
{ "type": "Feature", "properties": { "track_fid": 0, "track_seg_id": 0, "track_seg_point_id": 153, "ele": 43.630711, "time": "2026-03-10T17:17:31.216Z" }, "geometry": { "type": "Point", "coordinates": [ 13.367325, 52.621373 ] } },
{ "type": "Feature", "properties": { "track_fid": 0, "track_seg_id": 0, "track_seg_point_id": 154, "ele": 43.480351, "time": "2026-03-10T17:17:58.884Z" }, "geometry": { "type": "Point", "coordinates": [ 13.367069, 52.621153 ] } },
{ "type": "Feature", "properties": { "track_fid": 0, "track_seg_id": 0, "track_seg_point_id": 155, "ele": 43.298194, "time": "2026-03-10T17:18:32.122Z" }, "geometry": { "type": "Point", "coordinates": [ 13.366643, 52.620954 ] } },
{ "type": "Feature", "properties": { "track_fid": 0, "track_seg_id": 0, "track_seg_point_id": 156, "ele": 43.197993, "time": "2026-03-10T17:18:50.379Z" }, "geometry": { "type": "Point", "coordinates": [ 13.36636, 52.621006 ] } },
{ "type": "Feature", "properties": { "track_fid": 0, "track_seg_id": 0, "track_seg_point_id": 157, "ele": 43.132688, "time": "2026-03-10T17:19:02.128Z" }, "geometry": { "type": "Point", "coordinates": [ 13.366168, 52.620996 ] } },
{ "type": "Feature", "properties": { "track_fid": 0, "track_seg_id": 0, "track_seg_point_id": 158, "ele": 43.064923, "time": "2026-03-10T17:19:17.548Z" }, "geometry": { "type": "Point", "coordinates": [ 13.365944, 52.620925 ] } },
{ "type": "Feature", "properties": { "track_fid": 0, "track_seg_id": 0, "track_seg_point_id": 159, "ele": 43.034382, "time": "2026-03-10T17:19:35.401Z" }, "geometry": { "type": "Point", "coordinates": [ 13.365698, 52.620829 ] } },
{ "type": "Feature", "properties": { "track_fid": 0, "track_seg_id": 0, "track_seg_point_id": 160, "ele": 43.016433, "time": "2026-03-10T17:19:45.985Z" }, "geometry": { "type": "Point", "coordinates": [ 13.36553, 52.620807 ] } },
{ "type": "Feature", "properties": { "track_fid": 0, "track_seg_id": 0, "track_seg_point_id": 161, "ele": 42.927499, "time": "2026-03-10T17:20:37.995Z" }, "geometry": { "type": "Point", "coordinates": [ 13.36474, 52.620614 ] } },
{ "type": "Feature", "properties": { "track_fid": 0, "track_seg_id": 0, "track_seg_point_id": 162, "ele": 42.855037, "time": "2026-03-10T17:21:20.556Z" }, "geometry": { "type": "Point", "coordinates": [ 13.364066, 52.620514 ] } },
{ "type": "Feature", "properties": { "track_fid": 0, "track_seg_id": 0, "track_seg_point_id": 163, "ele": 42.778771, "time": "2026-03-10T17:22:05.267Z" }, "geometry": { "type": "Point", "coordinates": [ 13.363363, 52.620394 ] } },
{ "type": "Feature", "properties": { "track_fid": 0, "track_seg_id": 0, "track_seg_point_id": 164, "ele": 42.951558, "time": "2026-03-10T17:22:42.247Z" }, "geometry": { "type": "Point", "coordinates": [ 13.362847, 52.620208 ] } },
{ "type": "Feature", "properties": { "track_fid": 0, "track_seg_id": 0, "track_seg_point_id": 165, "ele": 43.139373, "time": "2026-03-10T17:23:10.726Z" }, "geometry": { "type": "Point", "coordinates": [ 13.362495, 52.620035 ] } },
{ "type": "Feature", "properties": { "track_fid": 0, "track_seg_id": 0, "track_seg_point_id": 166, "ele": 43.259235, "time": "2026-03-10T17:23:29.108Z" }, "geometry": { "type": "Point", "coordinates": [ 13.362224, 52.619974 ] } },
{ "type": "Feature", "properties": { "track_fid": 0, "track_seg_id": 0, "track_seg_point_id": 167, "ele": 44.018987, "time": "2026-03-10T17:25:36.799Z" }, "geometry": { "type": "Point", "coordinates": [ 13.360208, 52.61979 ] } },
{ "type": "Feature", "properties": { "track_fid": 0, "track_seg_id": 0, "track_seg_point_id": 168, "ele": 44.118011, "time": "2026-03-10T17:26:38.471Z" }, "geometry": { "type": "Point", "coordinates": [ 13.359735, 52.620325 ] } },
{ "type": "Feature", "properties": { "track_fid": 0, "track_seg_id": 0, "track_seg_point_id": 169, "ele": 44.189118, "time": "2026-03-10T17:27:22.131Z" }, "geometry": { "type": "Point", "coordinates": [ 13.359453, 52.620726 ] } },
{ "type": "Feature", "properties": { "track_fid": 0, "track_seg_id": 0, "track_seg_point_id": 170, "ele": 44.229838, "time": "2026-03-10T17:27:47.254Z" }, "geometry": { "type": "Point", "coordinates": [ 13.359117, 52.62087 ] } },
{ "type": "Feature", "properties": { "track_fid": 0, "track_seg_id": 0, "track_seg_point_id": 171, "ele": 44.243858, "time": "2026-03-10T17:27:55.922Z" }, "geometry": { "type": "Point", "coordinates": [ 13.359003, 52.620921 ] } },
{ "type": "Feature", "properties": { "track_fid": 0, "track_seg_id": 0, "track_seg_point_id": 172, "ele": 44.285442, "time": "2026-03-10T17:28:34.823Z" }, "geometry": { "type": "Point", "coordinates": [ 13.358493, 52.621149 ] } },
{ "type": "Feature", "properties": { "track_fid": 0, "track_seg_id": 0, "track_seg_point_id": 173, "ele": 44.285442, "time": "2026-03-10T17:28:45.831Z" }, "geometry": { "type": "Point", "coordinates": [ 13.358348, 52.621214 ] } },
{ "type": "Feature", "properties": { "track_fid": 0, "track_seg_id": 0, "track_seg_point_id": 174, "ele": 44.285442, "time": "2026-03-10T17:28:55.441Z" }, "geometry": { "type": "Point", "coordinates": [ 13.358192, 52.621225 ] } },
{ "type": "Feature", "properties": { "track_fid": 0, "track_seg_id": 0, "track_seg_point_id": 175, "ele": 44.285442, "time": "2026-03-10T17:30:45.849Z" }, "geometry": { "type": "Point", "coordinates": [ 13.356562, 52.620746 ] } },
{ "type": "Feature", "properties": { "track_fid": 0, "track_seg_id": 0, "track_seg_point_id": 176, "ele": 44.285442, "time": "2026-03-10T17:30:50.627Z" }, "geometry": { "type": "Point", "coordinates": [ 13.356492, 52.620725 ] } },
{ "type": "Feature", "properties": { "track_fid": 0, "track_seg_id": 0, "track_seg_point_id": 177, "ele": 44.285442, "time": "2026-03-10T17:31:09.469Z" }, "geometry": { "type": "Point", "coordinates": [ 13.356213, 52.620647 ] } }
]
}
